<?xml version="1.0" encoding="UTF-8"?>
<ndm xmlns:xsi="http://www.w3.org/2001/XMLSchema-instance" xsi:noNamespaceSchemaLocation="https://sanaregistry.org/r/ndmxml_unqualified/ndmxml-2.0.0-master-2.0.xsd">
<omm id="CCSDS_OMM_VERS" version="2.0">
<header><CREATION_DATE/><ORIGINATOR/></header><body><segment><metadata><OBJECT_NAME>ORBCOMM FM24</OBJECT_NAME><OBJECT_ID>1998-053D</OBJECT_ID><CENTER_NAME>EARTH</CENTER_NAME><REF_FRAME>TEME</REF_FRAME><TIME_SYSTEM>UTC</TIME_SYSTEM><MEAN_ELEMENT_THEORY>SGP4</MEAN_ELEMENT_THEORY></metadata><data><meanElements><EPOCH>2024-11-04T20:12:41.796288</EPOCH><MEAN_MOTION>14.36882021</MEAN_MOTION><ECCENTRICITY>.0000725</ECCENTRICITY><INCLINATION>45.0072</INCLINATION><RA_OF_ASC_NODE>251.9267</RA_OF_ASC_NODE><ARG_OF_PERICENTER>250.9670</ARG_OF_PERICENTER><MEAN_ANOMALY>109.1099</MEAN_ANOMALY></meanElements><tleParameters><EPHEMERIS_TYPE>0</EPHEMERIS_TYPE><CLASSIFICATION_TYPE>U</CLASSIFICATION_TYPE><NORAD_CAT_ID>25478</NORAD_CAT_ID><ELEMENT_SET_NO>999</ELEMENT_SET_NO><REV_AT_EPOCH>36516</REV_AT_EPOCH><BSTAR>.19762E-2</BSTAR><MEAN_MOTION_DOT>.5761E-4</MEAN_MOTION_DOT><MEAN_MOTION_DDOT>0</MEAN_MOTION_DDOT></tleParameters></data></segment></body></omm>
<omm id="CCSDS_OMM_VERS" version="2.0">
<header><CREATION_DATE/><ORIGINATOR/></header><body><segment><metadata><OBJECT_NAME>ORBCOMM FM25</OBJECT_NAME><OBJECT_ID>1998-053E</OBJECT_ID><CENTER_NAME>EARTH</CENTER_NAME><REF_FRAME>TEME</REF_FRAME><TIME_SYSTEM>UTC</TIME_SYSTEM><MEAN_ELEMENT_THEORY>SGP4</MEAN_ELEMENT_THEORY></metadata><data><meanElements><EPOCH>2024-11-04T19:27:10.985184</EPOCH><MEAN_MOTION>14.36869959</MEAN_MOTION><ECCENTRICITY>.0003048</ECCENTRICITY><INCLINATION>45.0064</INCLINATION><RA_OF_ASC_NODE>250.3303</RA_OF_ASC_NODE><ARG_OF_PERICENTER>219.8272</ARG_OF_PERICENTER><MEAN_ANOMALY>140.2352</MEAN_ANOMALY></meanElements><tleParameters><EPHEMERIS_TYPE>0</EPHEMERIS_TYPE><CLASSIFICATION_TYPE>U</CLASSIFICATION_TYPE><NORAD_CAT_ID>25479</NORAD_CAT_ID><ELEMENT_SET_NO>999</ELEMENT_SET_NO><REV_AT_EPOCH>36545</REV_AT_EPOCH><BSTAR>.23551E-2</BSTAR><MEAN_MOTION_DOT>.6892E-4</MEAN_MOTION_DOT><MEAN_MOTION_DDOT>0</MEAN_MOTION_DDOT></tleParameters></data></segment></body></omm>
<omm id="CCSDS_OMM_VERS" version="2.0">
<header><CREATION_DATE/><ORIGINATOR/></header><body><segment><metadata><OBJECT_NAME>ORBCOMM FM26</OBJECT_NAME><OBJECT_ID>1998-053F</OBJECT_ID><CENTER_NAME>EARTH</CENTER_NAME><REF_FRAME>TEME</REF_FRAME><TIME_SYSTEM>UTC</TIME_SYSTEM><MEAN_ELEMENT_THEORY>SGP4</MEAN_ELEMENT_THEORY></metadata><data><meanElements><EPOCH>2024-11-04T21:30:01.369152</EPOCH><MEAN_MOTION>14.36117282</MEAN_MOTION><ECCENTRICITY>.0005458</ECCENTRICITY><INCLINATION>45.0060</INCLINATION><RA_OF_ASC_NODE>244.9054</RA_OF_ASC_NODE><ARG_OF_PERICENTER>235.1082</ARG_OF_PERICENTER><MEAN_ANOMALY>124.9252</MEAN_ANOMALY></meanElements><tleParameters><EPHEMERIS_TYPE>0</EPHEMERIS_TYPE><CLASSIFICATION_TYPE>U</CLASSIFICATION_TYPE><NORAD_CAT_ID>25480</NORAD_CAT_ID><ELEMENT_SET_NO>999</ELEMENT_SET_NO><REV_AT_EPOCH>36539</REV_AT_EPOCH><BSTAR>.18635E-2</BSTAR><MEAN_MOTION_DOT>.534E-4</MEAN_MOTION_DOT><MEAN_MOTION_DDOT>0</MEAN_MOTION_DDOT></tleParameters></data></segment></body></omm>
<omm id="CCSDS_OMM_VERS" version="2.0">
<header><CREATION_DATE/><ORIGINATOR/></header><body><segment><metadata><OBJECT_NAME>ORBCOMM FM27</OBJECT_NAME><OBJECT_ID>1998-053G</OBJECT_ID><CENTER_NAME>EARTH</CENTER_NAME><REF_FRAME>TEME</REF_FRAME><TIME_SYSTEM>UTC</TIME_SYSTEM><MEAN_ELEMENT_THEORY>SGP4</MEAN_ELEMENT_THEORY></metadata><data><meanElements><EPOCH>2024-11-04T12:31:34.485024</EPOCH><MEAN_MOTION>14.36860419</MEAN_MOTION><ECCENTRICITY>.0001535</ECCENTRICITY><INCLINATION>45.0050</INCLINATION><RA_OF_ASC_NODE>251.9510</RA_OF_ASC_NODE><ARG_OF_PERICENTER>334.2430</ARG_OF_PERICENTER><MEAN_ANOMALY>25.8341</MEAN_ANOMALY></meanElements><tleParameters><EPHEMERIS_TYPE>0</EPHEMERIS_TYPE><CLASSIFICATION_TYPE>U</CLASSIFICATION_TYPE><NORAD_CAT_ID>25481</NORAD_CAT_ID><ELEMENT_SET_NO>999</ELEMENT_SET_NO><REV_AT_EPOCH>36534</REV_AT_EPOCH><BSTAR>.22959E-2</BSTAR><MEAN_MOTION_DOT>.6714E-4</MEAN_MOTION_DOT><MEAN_MOTION_DDOT>0</MEAN_MOTION_DDOT></tleParameters></data></segment></body></omm>
<omm id="CCSDS_OMM_VERS" version="2.0">
<header><CREATION_DATE/><ORIGINATOR/></header><body><segment><metadata><OBJECT_NAME>ORBCOMM FM28</OBJECT_NAME><OBJECT_ID>1998-053H</OBJECT_ID><CENTER_NAME>EARTH</CENTER_NAME><REF_FRAME>TEME</REF_FRAME><TIME_SYSTEM>UTC</TIME_SYSTEM><MEAN_ELEMENT_THEORY>SGP4</MEAN_ELEMENT_THEORY></metadata><data><meanElements><EPOCH>2024-11-04T09:21:37.451520</EPOCH><MEAN_MOTION>14.37185272</MEAN_MOTION><ECCENTRICITY>.0003512</ECCENTRICITY><INCLINATION>45.0037</INCLINATION><RA_OF_ASC_NODE>190.5042</RA_OF_ASC_NODE><ARG_OF_PERICENTER>255.6434</ARG_OF_PERICENTER><MEAN_ANOMALY>104.4024</MEAN_ANOMALY></meanElements><tleParameters><EPHEMERIS_TYPE>0</EPHEMERIS_TYPE><CLASSIFICATION_TYPE>U</CLASSIFICATION_TYPE><NORAD_CAT_ID>25482</NORAD_CAT_ID><ELEMENT_SET_NO>999</ELEMENT_SET_NO><REV_AT_EPOCH>36600</REV_AT_EPOCH><BSTAR>.21394E-2</BSTAR><MEAN_MOTION_DOT>.6288E-4</MEAN_MOTION_DOT><MEAN_MOTION_DDOT>0</MEAN_MOTION_DDOT></tleParameters></data></segment></body></omm>
<omm id="CCSDS_OMM_VERS" version="2.0">
<header><CREATION_DATE/><ORIGINATOR/></header><body><segment><metadata><OBJECT_NAME>ORBCOMM FM30</OBJECT_NAME><OBJECT_ID>1999-065A</OBJECT_ID><CENTER_NAME>EARTH</CENTER_NAME><REF_FRAME>TEME</REF_FRAME><TIME_SYSTEM>UTC</TIME_SYSTEM><MEAN_ELEMENT_THEORY>SGP4</MEAN_ELEMENT_THEORY></metadata><data><meanElements><EPOCH>2024-11-04T15:10:01.097760</EPOCH><MEAN_MOTION>14.36258979</MEAN_MOTION><ECCENTRICITY>.0006034</ECCENTRICITY><INCLINATION>45.0312</INCLINATION><RA_OF_ASC_NODE>71.8517</RA_OF_ASC_NODE><ARG_OF_PERICENTER>307.5050</ARG_OF_PERICENTER><MEAN_ANOMALY>52.5249</MEAN_ANOMALY></meanElements><tleParameters><EPHEMERIS_TYPE>0</EPHEMERIS_TYPE><CLASSIFICATION_TYPE>U</CLASSIFICATION_TYPE><NORAD_CAT_ID>25980</NORAD_CAT_ID><ELEMENT_SET_NO>999</ELEMENT_SET_NO><REV_AT_EPOCH>30215</REV_AT_EPOCH><BSTAR>.1992E-2</BSTAR><MEAN_MOTION_DOT>.5735E-4</MEAN_MOTION_DOT><MEAN_MOTION_DDOT>0</MEAN_MOTION_DDOT></tleParameters></data></segment></body></omm>
<omm id="CCSDS_OMM_VERS" version="2.0">
<header><CREATION_DATE/><ORIGINATOR/></header><body><segment><metadata><OBJECT_NAME>ORBCOMM FM31</OBJECT_NAME><OBJECT_ID>1999-065B</OBJECT_ID><CENTER_NAME>EARTH</CENTER_NAME><REF_FRAME>TEME</REF_FRAME><TIME_SYSTEM>UTC</TIME_SYSTEM><MEAN_ELEMENT_THEORY>SGP4</MEAN_ELEMENT_THEORY></metadata><data><meanElements><EPOCH>2024-11-04T14:22:47.080992</EPOCH><MEAN_MOTION>14.36236758</MEAN_MOTION><ECCENTRICITY>.0002926</ECCENTRICITY><INCLINATION>45.0227</INCLINATION><RA_OF_ASC_NODE>65.5892</RA_OF_ASC_NODE><ARG_OF_PERICENTER>319.3550</ARG_OF_PERICENTER><MEAN_ANOMALY>40.7079</MEAN_ANOMALY></meanElements><tleParameters><EPHEMERIS_TYPE>0</EPHEMERIS_TYPE><CLASSIFICATION_TYPE>U</CLASSIFICATION_TYPE><NORAD_CAT_ID>25981</NORAD_CAT_ID><ELEMENT_SET_NO>999</ELEMENT_SET_NO><REV_AT_EPOCH>30170</REV_AT_EPOCH><BSTAR>.20532E-2</BSTAR><MEAN_MOTION_DOT>.5912E-4</MEAN_MOTION_DOT><MEAN_MOTION_DDOT>0</MEAN_MOTION_DDOT></tleParameters></data></segment></body></omm>
<omm id="CCSDS_OMM_VERS" version="2.0">
<header><CREATION_DATE/><ORIGINATOR/></header><body><segment><metadata><OBJECT_NAME>ORBCOMM FM32</OBJECT_NAME><OBJECT_ID>1999-065C</OBJECT_ID><CENTER_NAME>EARTH</CENTER_NAME><REF_FRAME>TEME</REF_FRAME><TIME_SYSTEM>UTC</TIME_SYSTEM><MEAN_ELEMENT_THEORY>SGP4</MEAN_ELEMENT_THEORY></metadata><data><meanElements><EPOCH>2024-11-04T16:53:12.026688</EPOCH><MEAN_MOTION>14.35255169</MEAN_MOTION><ECCENTRICITY>.0004619</ECCENTRICITY><INCLINATION>45.0148</INCLINATION><RA_OF_ASC_NODE>80.1487</RA_OF_ASC_NODE><ARG_OF_PERICENTER>334.3640</ARG_OF_PERICENTER><MEAN_ANOMALY>25.6978</MEAN_ANOMALY></meanElements><tleParameters><EPHEMERIS_TYPE>0</EPHEMERIS_TYPE><CLASSIFICATION_TYPE>U</CLASSIFICATION_TYPE><NORAD_CAT_ID>25982</NORAD_CAT_ID><ELEMENT_SET_NO>999</ELEMENT_SET_NO><REV_AT_EPOCH>30233</REV_AT_EPOCH><BSTAR>.20466E-2</BSTAR><MEAN_MOTION_DOT>.5776E-4</MEAN_MOTION_DOT><MEAN_MOTION_DDOT>0</MEAN_MOTION_DDOT></tleParameters></data></segment></body></omm>

</ndm>
