ORBCOMM FM24            
1 25478U 98053D   24309.84215042  .00005761  00000+0  19762-2 0  9990
2 25478  45.0072 251.9267 0000725 250.9670 109.1099 14.36882021365166
ORBCOMM FM25            
1 25479U 98053E   24309.81054381  .00006892  00000+0  23551-2 0  9992
2 25479  45.0064 250.3303 0003048 219.8272 140.2352 14.36869959365450
ORBCOMM FM26            
1 25480U 98053F   24309.89584918  .00005340  00000+0  18635-2 0  9990
2 25480  45.0060 244.9054 0005458 235.1082 124.9252 14.36117282365393
ORBCOMM FM27            
1 25481U 98053G   24309.52192691  .00006714  00000+0  22959-2 0  9994
2 25481  45.0050 251.9510 0001535 334.2430  25.8341 14.36860419365348
ORBCOMM FM28            
1 25482U 98053H   24309.39001680  .00006288  00000+0  21394-2 0  9995
2 25482  45.0037 190.5042 0003512 255.6434 104.4024 14.37185272366003
ORBCOMM FM30            
1 25980U 99065A   24309.63195715  .00005735  00000+0  19920-2 0  9990
2 25980  45.0312  71.8517 0006034 307.5050  52.5249 14.36258979302155
ORBCOMM FM31            
1 25981U 99065B   24309.59915603  .00005912  00000+0  20532-2 0  9990
2 25981  45.0227  65.5892 0002926 319.3550  40.7079 14.36236758301700
ORBCOMM FM32            
1 25982U 99065C   24309.70361142  .00005776  00000+0  20466-2 0  9991
2 25982  45.0148  80.1487 0004619 334.3640  25.6978 14.35255169302330
